[{"OBJECT_NAME":"YAOGAN-36 02A","OBJECT_ID":"2022-133A","EPOCH":"2026-03-10T00:04:36.049728","MEAN_MOTION":15.23118612,"ECCENTRICITY":0.00301484,"INCLINATION":35.0077,"RA_OF_ASC_NODE":23.5078,"ARG_OF_PERICENTER":29.898,"MEAN_ANOMALY":330.345,"EPHEMERIS_TYPE":0,"CLASSIFICATION_TYPE":"U","NORAD_CAT_ID":54042,"ELEMENT_SET_NO":999,"REV_AT_EPOCH":18962,"BSTAR":0.00070143583,"MEAN_MOTION_DOT":0.00017174,"MEAN_MOTION_DDOT":0},{"OBJECT_NAME":"STARLINK-31809","OBJECT_ID":"2024-090P","EPOCH":"2026-03-09T07:33:02.274624","MEAN_MOTION":15.27574983,"ECCENTRICITY":0.00010799,"INCLINATION":43.0002,"RA_OF_ASC_NODE":178.6175,"ARG_OF_PERICENTER":298.3904,"MEAN_ANOMALY":61.6839,"EPHEMERIS_TYPE":0,"CLASSIFICATION_TYPE":"U","NORAD_CAT_ID":59743,"ELEMENT_SET_NO":999,"REV_AT_EPOCH":10346,"BSTAR":-2.2778375e-5,"MEAN_MOTION_DOT":-8.89e-6,"MEAN_MOTION_DDOT":0}]
